O3B MPOWER F9           
1 64866U 25153A   26095.01597221 -.00000026  00000+0  00000+0 0  9992
2 64866   0.0511  14.8201 0005175  25.5245 319.6924  5.00116291 15900
O3B MPOWER F10          
1 64867U 25153B   26094.98182475 -.00000026  00000+0  00000+0 0  9999
2 64867   0.0518   9.9961 0003577 256.6258  93.3359  5.00115052 18377
